FUNCUBE-1 (AO-73)       
1 39444U 13066AE  24170.42015683  .00005733  00000+0  55587-3 0  9993
2 39444  97.7185 129.4874 0049443 135.4546 225.0664 14.92134992570292
UWE-3                   
1 39446U 13066AG  24170.59771077  .00003580  00000+0  40178-3 0  9997
2 39446  97.7806 120.3070 0059363 213.4646 146.2813 14.86136495568911
BRITE-CA1 (TORONTO)     
1 40020U 14033L   24170.38278957  .00001568  00000+0  25865-3 0  9998
2 40020  97.8775 307.4631 0084436  88.4717 272.6160 14.69462045535047
DUCHIFAT-1              
1 40021U 14033M   24170.42193918  .00011282  00000+0  74905-3 0  9990
2 40021  98.0896 154.3168 0015242  96.9659 263.3301 15.07312607544312
NANOSATC-BR1            
1 40024U 14033Q   24170.47263889  .00009504  00000+0  70297-3 0  9997
2 40024  98.0621 142.6267 0007102 154.1887 205.9693 15.03393321543444
QB50P1                  
1 40025U 14033R   24170.41791261  .00005986  00000+0  48841-3 0  9992
2 40025  98.0373 131.2160 0012278 154.0214 206.1627 14.99777436543063
QB50P2                  
1 40032U 14033Y   24170.58805268  .00005573  00000+0  47066-3 0  9991
2 40032  98.0053 123.0760 0010124 145.4778 214.7103 14.98490864542887
PERSEUS-M2              
1 40037U 14033AD  24170.36886895  .00002246  00000+0  23565-3 0  9999
2 40037  97.9271 101.1631 0012908 184.3188 175.7920 14.90495001542002
PERSEUS-M1              
1 40039U 14033AF  24170.52857577  .00002150  00000+0  22710-3 0  9999
2 40039  97.9070  97.3754 0012771 183.2397 176.8740 14.90270230541883
POLYITAN-1              
1 40042U 14033AJ  24170.48505717  .00008567  00000+0  64689-3 0  9993
2 40042  98.0700 134.8228 0015834 122.4154 237.8604 15.02567859543037
TIGRISAT                
1 40043U 14033AK  24170.42443744  .00002172  00000+0  29425-3 0  9994
2 40043  97.6949 333.1009 0054054 300.1857  59.4007 14.78948892537648
AEROCUBE 6A             
1 40045U 14033AM  24170.47543956  .00004773  00000+0  57424-3 0  9996
2 40045  97.6692 343.9044 0049050 277.3666  82.1976 14.83516306537988
AEROCUBE 6B             
1 40046U 14033AN  24170.44302587  .00004865  00000+0  57353-3 0  9990
2 40046  97.6659 342.5790 0047678 272.7592  86.8166 14.84390536538031
UKUBE-1                 
1 40074U 14037F   24170.60894857  .00006766  00000+0  64193-3 0  9991
2 40074  98.3427 100.6188 0005842  75.6775 284.5092 14.93889228538998
BRITE-PL2 (HEWELIUSZ)   
1 40119U 14049B   24170.22548708  .00002754  00000+0  29884-3 0  9994
2 40119  97.8832 269.8866 0015710   6.1851 353.9557 14.88905643532739
CP10 (EXOCUBE)          
1 40380U 15003E   24170.05831381  .00600668  16149-3  12209-2 0  9993
2 40380  99.0848 197.6866 0021197 118.3779 241.9634 15.99069451519580
AEROCUBE 5C             
1 40965U 15058B   24170.61434366  .00002288  00000+0  22105-3 0  9992
2 40965  64.7709 357.2705 0190420 307.6862  50.7107 14.82864074257251
AEROCUBE 7              
1 40966U 15058C   24170.55984655  .00002878  00000+0  26453-3 0  9992
2 40966  64.7685 351.1931 0185318 307.3282  51.1063 14.84754708257319
FOX-1A (AO-85)          
1 40967U 15058D   24170.60800526  .00002414  00000+0  23644-3 0  9998
2 40967  64.7786  11.1556 0189880 303.4952  54.8134 14.82262568  5201
SINOD-D 1               
1 40968U 15058E   24170.51057768  .00003127  00000+0  29033-3 0  9991
2 40968  64.7788   4.2106 0184663 302.5013  55.8364 14.84262931  8014
SNAP-3 ALICE            
1 40970U 15058G   24170.57034558  .00009498  00000+0  66526-3 0  9997
2 40970  64.7715 321.2274 0155553 300.3833  58.1982 14.96388321  5998
LMRST-SAT               
1 40971U 15058H   24170.51540646  .00002266  00000+0  22258-3 0  9992
2 40971  64.7776   6.9694 0190969 304.9205  53.4087 14.82203632  5194
SNAP-3 EDDIE            
1 40972U 15058J   24170.58017925  .00009068  00000+0  62834-3 0  9990
2 40972  64.7693 314.6052 0156133 301.3525  57.2389 14.96743515  8094
PROPCUBE 3              
1 40973U 15058K   24170.60668906  .00002739  00000+0  25583-3 0  9993
2 40973  64.7719 354.4975 0187387 306.2221  52.1688 14.84012677  6248
BISONSAT                
1 40974U 15058L   24170.51508267  .00005897  00000+0  46151-3 0  9999
2 40974  64.7688 329.0938 0169024 303.8812  54.6317 14.91348667  5961
SNAP-3 JIMI             
1 40975U 15058M   24170.62397001  .00003841  00000+0  33160-3 0  9997
2 40975  64.7703 342.4905 0179603 305.1724  53.2674 14.87164176  5242
PROPCUBE 1 (FLORA)      
1 40976U 15058N   24170.57837689  .00002384  00000+0  24185-3 0  9991
2 40976  64.7770  22.2087 0188890 306.1310  52.2441 14.81076642  8003
SINOD-D 3               
1 40977U 15058P   24170.56605134  .00002983  00000+0  28776-3 0  9994
2 40977  64.7765  15.5439 0183602 305.2984  53.1070 14.83061453  6234
VELOX-II                
1 41171U 15077F   24169.86541044  .00237021  00000+0  14246-2 0  9991
2 41171  14.9875  47.3760 0002628 352.7328   7.2963 15.75650579471891
HORYU-4                 
1 41340U 16012D   24170.45500285  .00010818  00000+0  53510-3 0  9999
2 41340  31.0033 327.3449 0010197 348.7791  11.2621 15.16501424458349
RAVAN                   
1 41849U 16067B   24170.43275863  .00009152  00000+0  50423-3 0  9991
2 41849  98.0642 348.1957 0013263  29.9469 330.2517 15.14186579416175
CELTEE 1                
1 41850U 16067C   24170.42819022  .00006117  00000+0  41725-3 0  9996
2 41850  98.1011 339.9884 0001422 144.5012 215.6309 15.06617763415615
OPTICUBE 04             
1 41851U 16067D   24170.41826950  .00003661  00000+0  27774-3 0  9993
2 41851  98.0736 335.4073 0018549  53.0241 307.2678 15.02768172415429
AEROCUBE 8D             
1 41852U 16067E   24170.41667196  .00007107  00000+0  46806-3 0  9995
2 41852  98.1071 339.7309 0006048 104.5180 255.6718 15.07848411415585
AEROCUBE 8C             
1 41853U 16067F   24170.43024958  .00006491  00000+0  42834-3 0  9993
2 41853  98.0874 338.3217 0008227  42.3665 317.8195 15.07800120415571
PROMETHEUS 2-1          
1 41854U 16067G   24170.48051141  .00014530  00000+0  73492-3 0  9990
2 41854  98.0994 345.7471 0012968  57.4149 302.8333 15.17085505415931
PROMETHEUS 2-3          
1 41855U 16067H   24170.54276902  .00014608  00000+0  73983-3 0  9993
2 41855  98.0924 345.3008 0011244  67.3331 292.9088 15.17055719415947
DIDO-2                  
1 42000U 17008BE  24170.56704593  .00297920  35403-4  89012-3 0  9996
2 42000  97.1273 232.5563 0005272 182.0744 178.0509 15.92346260409028
AALTO-1                 
1 42775U 17036L   24170.55774739  .00099891  00000+0  87124-3 0  9993
2 42775  97.1021 200.2074 0007295 170.9810 189.1584 15.68642226389324
URSA MAIOR              
1 42776U 17036M   24170.58992834  .00575328  14676-3  11809-2 0  9993
2 42776  97.0945 205.0236 0009007 195.8422 164.2576 15.99275479389635
CORVUS BC2              
1 42846U 17042X   24170.45864738  .00003902  00000+0  33700-3 0  9996
2 42846  97.3733 355.4905 0009544  62.7498 297.4696 14.97742741377632
CORVUS BC1              
1 42847U 17042Y   24170.48637375  .00002863  00000+0  24752-3 0  9997
2 42847  97.3740 355.9207 0009450  58.6238 301.5909 14.97904599377650
MIRATA                  
1 43015U 17073C   24170.59979335  .00014732  00000+0  69695-3 0  9999
2 43015  97.5968  55.3275 0167256 255.8833 102.3759 15.07863029356548
MAKERSAT 0              
1 43016U 17073D   24170.62652718  .00009438  00000+0  54008-3 0  9996
2 43016  97.5835  49.5714 0192973 277.6741  80.2606 14.98407017356139
GOMX-4B                 
1 43196U 18015E   24170.44616057  .00057652  00000+0  60943-3 0  9994
2 43196  97.6053 344.1568 0006352 296.7413  63.3194 15.63986951355725
GOMX-4A                 
1 43197U 18015F   24170.55307631  .00103762  00000+0  64230-3 0  9999
2 43197  97.5955 349.4217 0005964 271.2777  88.7805 15.76749961356097
CICERO 10               
1 43690U 18088A   24170.51990261  .00270543  00000+0  11566-2 0  9995
2 43690  85.0035 178.3027 0005984 187.9574 172.1608 15.84459426312425
SIRION PATHFINDER-2     
1 43759U 18099B   24170.42528970  .00004823  00000+0  36431-3 0  9992
2 43759  97.5306 226.5324 0009388 281.9156  78.1017 15.02812677302697
CORVUS BC4              
1 43767U 18099K   24170.39240873  .00003879  00000+0  29923-3 0  9998
2 43767  97.5126 223.7210 0009642 357.4202   2.6972 15.02119597302573
MOVE-II                 
1 43780U 18099Y   24170.41164103  .00016414  00000+0  85914-3 0  9998
2 43780  97.5216 233.3869 0005066 341.1999  18.9045 15.15894843303114
SPACEBEE-7              
1 43816U 18099BL  24170.46170808  .00012624  00000+0  74389-3 0  9995
2 43816  97.5487 234.1443 0008523 281.0649  78.9622 15.11697929302608
SPACEBEE-6              
1 43818U 18099BN  24170.46389088  .00028796  00000+0  12036-2 0  9996
2 43818  97.5414 239.5150 0007194 273.6604  86.3810 15.23546747303107
SHIELDS 1               
1 43850U 18104B   24170.35964413  .00013310  00000+0  35551-3 0  9992
2 43850  85.0231 282.3128 0012216  73.2108 287.0481 15.37879995306349
SONATE                  
1 44400U 19038Q   24170.50766414  .00018616  00000+0  56034-3 0  9992
2 44400  97.7113 164.6609 0018381 101.5965 258.7341 15.34247609274286
LUCKY-7                 
1 44406U 19038W   24170.53231882  .00037217  00000+0  80205-3 0  9992
2 44406  97.7011 168.8050 0015537  89.3023 271.0004 15.44373887274578
DUCHIFAT-3              
1 44854U 19089C   24170.04706440  .00014382  00000+0  72564-3 0  9995
2 44854  36.9585  43.7970 0004186  83.6517 276.4706 15.16493642248403
M2 PATHFINDER           
1 45727U 20037E   24170.45579264  .00003189  00000+0  28052-3 0  9993
2 45727  97.7772 346.8833 0012732 116.3660 243.8871 14.97187241216139
NETSAT-4                
1 46504U 20068U   24170.45787057  .00008844  00000+0  47282-3 0  9991
2 46504  97.8052 127.6312 0009971  11.4060 348.7396 15.15288669204368
